{"type": "FeatureCollection", "features": [ {"type": "Feature", "properties": {"norad_id": 34001, "name": "COSMOS 2251 DEB", "group": "cosmos-2251-debris", "lat": -73.16119749407605, "lon": -159.07314405138152, "alt_km": 771.633760978867, "timestamp": "2025-12-17T23:38:07.246788+00:00", "meta": {"OBJECT_NAME": "COSMOS 2251 DEB", "OBJECT_ID": "1993-036GL", "EPOCH": "2025-12-17T13:10:36.384672", "MEAN_MOTION": 14.37104439, "ECCENTRICITY": 0.00201845, "INCLINATION": 74.0389, "RA_OF_ASC_NODE": 272.7442, "ARG_OF_PERICENTER": 352.7914, "MEAN_ANOMALY": 189.2507, "EPHEMERIS_TYPE": 0, "CLASSIFICATION_TYPE": "U", "NORAD_CAT_ID": 34001, "ELEMENT_SET_NO": 999, "REV_AT_EPOCH": 88215, "BSTAR": 0.00016337177, "MEAN_MOTION_DOT": 4.6e-06, "MEAN_MOTION_DDOT": 0}, "tle": {"line1": "1 34001U 93036GL  25351.54903223  .00000460  00000+0  16337-3 0  9995", "line2": "2 34001  74.0389 272.7442 0020184 352.7914 189.2507 14.37104439882157"}}, "geometry": {"type": "Point", "coordinates": [-159.07314405138152, -73.16119749407605]}}, {"type": "Feature", "properties": {"norad_id": 34003, "name": "COSMOS 2251 DEB", "group": "cosmos-2251-debris", "lat": -58.52911735360423, "lon": 124.1138291423185, "alt_km": 1118.2461928870553, "timestamp": "2025-12-17T23:38:07.246798+00:00", "meta": {"OBJECT_NAME": "COSMOS 2251 DEB", "OBJECT_ID": "1993-036GN", "EPOCH": "2025-12-16T20:26:52.468224", "MEAN_MOTION": 13.84175487, "ECCENTRICITY": 0.02747173, "INCLINATION": 74.0776, "RA_OF_ASC_NODE": 278.222, "ARG_OF_PERICENTER": 29.3035, "MEAN_ANOMALY": 332.3183, "EPHEMERIS_TYPE": 0, "CLASSIFICATION_TYPE": "U", "NORAD_CAT_ID": 34003, "ELEMENT_SET_NO": 999, "REV_AT_EPOCH": 84482, "BSTAR": 0.0016336828, "MEAN_MOTION_DOT": 2.418e-05, "MEAN_MOTION_DDOT": 0}, "tle": {"line1": "1 34003U 93036GN  25350.85199616  .00002418  00000+0  16337-2 0  9997", "line2": "2 34003  74.0776 278.2220 0274717  29.3035 332.3183 13.84175487844823"}}, "geometry": {"type": "Point", "coordinates": [124.1138291423185, -58.52911735360423]}}, {"type": "Feature", "properties": {"norad_id": 34004, "name": "COSMOS 2251 DEB", "group": "cosmos-2251-debris", "lat": 25.855097639419505, "lon": -48.751367166317245, "alt_km": 720.2282961894116, "timestamp": "2025-12-17T23:38:07.246808+00:00", "meta": {"OBJECT_NAME": "COSMOS 2251 DEB", "OBJECT_ID": "1993-036GP", "EPOCH": "2025-12-17T06:56:32.879616", "MEAN_MOTION": 14.49052548, "ECCENTRICITY": 0.00334056, "INCLINATION": 74.035, "RA_OF_ASC_NODE": 304.578, "ARG_OF_PERICENTER": 316.2119, "MEAN_ANOMALY": 43.6392, "EPHEMERIS_TYPE": 0, "CLASSIFICATION_TYPE": "U", "NORAD_CAT_ID": 34004, "ELEMENT_SET_NO": 999, "REV_AT_EPOCH": 88096, "BSTAR": 0.001009477, "MEAN_MOTION_DOT": 3.834e-05, "MEAN_MOTION_DDOT": 0}, "tle": {"line1": "1 34004U 93036GP  25351.28926944  .00003834  00000+0  10095-2 0  9996", "line2": "2 34004  74.0350 304.5780 0033405 316.2119  43.6392 14.49052548880967"}}, "geometry": {"type": "Point", "coordinates": [-48.751367166317245, 25.855097639419505]}}, {"type": "Feature", "properties": {"norad_id": 34005, "name": "COSMOS 2251 DEB", "group": "cosmos-2251-debris", "lat": 42.10126884163083, "lon": 8.974494658702035, "alt_km": 768.6159817220323, "timestamp": "2025-12-17T23:38:07.246819+00:00", "meta": {"OBJECT_NAME": "COSMOS 2251 DEB", "OBJECT_ID": "1993-036GQ", "EPOCH": "2025-12-17T14:57:06.583968", "MEAN_MOTION": 14.40307866, "ECCENTRICITY": 0.00210036, "INCLINATION": 74.0439, "RA_OF_ASC_NODE": 204.6253, "ARG_OF_PERICENTER": 322.0263, "MEAN_ANOMALY": 98.3762, "EPHEMERIS_TYPE": 0, "CLASSIFICATION_TYPE": "U", "NORAD_CAT_ID": 34005, "ELEMENT_SET_NO": 999, "REV_AT_EPOCH": 88449, "BSTAR": 9.3051185e-05, "MEAN_MOTION_DOT": 2.69e-06, "MEAN_MOTION_DDOT": 0}, "tle": {"line1": "1 34005U 93036GQ  25351.62299287  .00000269  00000+0  93051-4 0  9992", "line2": "2 34005  74.0439 204.6253 0021003 322.0263  98.3762 14.40307866884494"}}, "geometry": {"type": "Point", "coordinates": [8.974494658702035, 42.10126884163083]}}, {"type": "Feature", "properties": {"norad_id": 34006, "name": "COSMOS 2251 DEB", "group": "cosmos-2251-debris", "lat": -8.239160892896948, "lon": 130.3468573626851, "alt_km": 584.4600452666145, "timestamp": "2025-12-17T23:38:07.246829+00:00", "meta": {"OBJECT_NAME": "COSMOS 2251 DEB", "OBJECT_ID": "1993-036GR", "EPOCH": "2025-12-17T11:04:46.591104", "MEAN_MOTION": 14.95073432, "ECCENTRICITY": 0.00114016, "INCLINATION": 74.0524, "RA_OF_ASC_NODE": 133.7735, "ARG_OF_PERICENTER": 73.4667, "MEAN_ANOMALY": 343.6174, "EPHEMERIS_TYPE": 0, "CLASSIFICATION_TYPE": "U", "NORAD_CAT_ID": 34006, "ELEMENT_SET_NO": 999, "REV_AT_EPOCH": 88739, "BSTAR": 0.0023876569, "MEAN_MOTION_DOT": 0.00026257, "MEAN_MOTION_DDOT": 0}, "tle": {"line1": "1 34006U 93036GR  25351.46165036  .00026257  00000+0  23877-2 0  9991", "line2": "2 34006  74.0524 133.7735 0011401  73.4667 343.6174 14.95073432887397"}}, "geometry": {"type": "Point", "coordinates": [130.3468573626851, -8.239160892896948]}}, {"type": "Feature", "properties": {"norad_id": 34007, "name": "COSMOS 2251 DEB", "group": "cosmos-2251-debris", "lat": 71.39286219158124, "lon": 35.14285827026686, "alt_km": 643.2474804421563, "timestamp": "2025-12-17T23:38:07.246839+00:00", "meta": {"OBJECT_NAME": "COSMOS 2251 DEB", "OBJECT_ID": "1993-036GS", "EPOCH": "2025-12-17T10:09:29.206944", "MEAN_MOTION": 14.64818898, "ECCENTRICITY": 0.0044245, "INCLINATION": 74.0188, "RA_OF_ASC_NODE": 337.8803, "ARG_OF_PERICENTER": 111.2963, "MEAN_ANOMALY": 249.2938, "EPHEMERIS_TYPE": 0, "CLASSIFICATION_TYPE": "U", "NORAD_CAT_ID": 34007, "ELEMENT_SET_NO": 999, "REV_AT_EPOCH": 89148, "BSTAR": 0.00052331222, "MEAN_MOTION_DOT": 2.803e-05, "MEAN_MOTION_DDOT": 0}, "tle": {"line1": "1 34007U 93036GS  25351.42325471  .00002803  00000+0  52331-3 0  9998", "line2": "2 34007  74.0188 337.8803 0044245 111.2963 249.2938 14.64818898891482"}}, "geometry": {"type": "Point", "coordinates": [35.14285827026686, 71.39286219158124]}}, {"type": "Feature", "properties": {"norad_id": 34008, "name": "COSMOS 2251 DEB", "group": "cosmos-2251-debris", "lat": -73.80041545527175, "lon": -138.86680740668197, "alt_km": 776.4221785359678, "timestamp": "2025-12-17T23:38:07.246849+00:00", "meta": {"OBJECT_NAME": "COSMOS 2251 DEB", "OBJECT_ID": "1993-036GT", "EPOCH": "2025-12-17T09:42:55.297152", "MEAN_MOTION": 14.33149604, "ECCENTRICITY": 0.00244853, "INCLINATION": 74.0344, "RA_OF_ASC_NODE": 321.9921, "ARG_OF_PERICENTER": 316.4435, "MEAN_ANOMALY": 199.8234, "EPHEMERIS_TYPE": 0, "CLASSIFICATION_TYPE": "U", "NORAD_CAT_ID": 34008, "ELEMENT_SET_NO": 999, "REV_AT_EPOCH": 88031, "BSTAR": 0.00010809408, "MEAN_MOTION_DOT": 2.71e-06, "MEAN_MOTION_DDOT": 0}, "tle": {"line1": "1 34008U 93036GT  25351.40480668  .00000271  00000+0  10809-3 0  9998", "line2": "2 34008  74.0344 321.9921 0024485 316.4435 199.8234 14.33149604880316"}}, "geometry": {"type": "Point", "coordinates": [-138.86680740668197, -73.80041545527175]}}, {"type": "Feature", "properties": {"norad_id": 34009, "name": "COSMOS 2251 DEB", "group": "cosmos-2251-debris", "lat": -52.409613960036324, "lon": -54.47553486266417, "alt_km": 787.8071363755616, "timestamp": "2025-12-17T23:38:07.246859+00:00", "meta": {"OBJECT_NAME": "COSMOS 2251 DEB", "OBJECT_ID": "1993-036GU", "EPOCH": "2025-12-17T09:31:19.111008", "MEAN_MOTION": 14.3322596, "ECCENTRICITY": 0.00266867, "INCLINATION": 74.0372, "RA_OF_ASC_NODE": 328.4255, "ARG_OF_PERICENTER": 36.6236, "MEAN_ANOMALY": 115.3133, "EPHEMERIS_TYPE": 0, "CLASSIFICATION_TYPE": "U", "NORAD_CAT_ID": 34009, "ELEMENT_SET_NO": 999, "REV_AT_EPOCH": 88012, "BSTAR": 0.00012770678, "MEAN_MOTION_DOT": 3.27e-06, "MEAN_MOTION_DDOT": 0}, "tle": {"line1": "1 34009U 93036GU  25351.39674897  .00000327  00000+0  12771-3 0  9998", "line2": "2 34009  74.0372 328.4255 0026686  36.6236 115.3133 14.33225960880125"}}, "geometry": {"type": "Point", "coordinates": [-54.47553486266417, -52.409613960036324]}}, {"type": "Feature", "properties": {"norad_id": 34010, "name": "COSMOS 2251 DEB", "group": "cosmos-2251-debris", "lat": -2.0069316626387943, "lon": -88.27204790168814, "alt_km": 508.7612679056574, "timestamp": "2025-12-17T23:38:07.246869+00:00", "meta": {"OBJECT_NAME": "COSMOS 2251 DEB", "OBJECT_ID": "1993-036GV", "EPOCH": "2025-12-17T04:40:58.104480", "MEAN_MOTION": 15.19451391, "ECCENTRICITY": 0.00045706, "INCLINATION": 73.999, "RA_OF_ASC_NODE": 273.9611, "ARG_OF_PERICENTER": 64.443, "MEAN_ANOMALY": 295.7239, "EPHEMERIS_TYPE": 0, "CLASSIFICATION_TYPE": "U", "NORAD_CAT_ID": 34010, "ELEMENT_SET_NO": 999, "REV_AT_EPOCH": 89353, "BSTAR": 0.0033774124, "MEAN_MOTION_DOT": 0.00072328, "MEAN_MOTION_DDOT": 0}, "tle": {"line1": "1 34010U 93036GV  25351.19511695  .00072328  00000+0  33774-2 0  9999", "line2": "2 34010  73.9990 273.9611 0004570  64.4430 295.7239 15.19451391893537"}}, "geometry": {"type": "Point", "coordinates": [-88.27204790168814, -2.0069316626387943]}}, {"type": "Feature", "properties": {"norad_id": 34011, "name": "COSMOS 2251 DEB", "group": "cosmos-2251-debris", "lat": 62.981806184072774, "lon": 106.2106045419569, "alt_km": 737.088008295801, "timestamp": "2025-12-17T23:38:07.246878+00:00", "meta": {"OBJECT_NAME": "COSMOS 2251 DEB", "OBJECT_ID": "1993-036GW", "EPOCH": "2025-12-17T08:08:00.115008", "MEAN_MOTION": 14.41791967, "ECCENTRICITY": 0.00358451, "INCLINATION": 74.0142, "RA_OF_ASC_NODE": 321.6145, "ARG_OF_PERICENTER": 43.785, "MEAN_ANOMALY": 316.6138, "EPHEMERIS_TYPE": 0, "CLASSIFICATION_TYPE": "U", "NORAD_CAT_ID": 34011, "ELEMENT_SET_NO": 999, "REV_AT_EPOCH": 87982, "BSTAR": 0.00060483585, "MEAN_MOTION_DOT": 1.965e-05, "MEAN_MOTION_DDOT": 0}, "tle": {"line1": "1 34011U 93036GW  25351.33889022  .00001965  00000+0  60484-3 0  9996", "line2": "2 34011  74.0142 321.6145 0035845  43.7850 316.6138 14.41791967879824"}}, "geometry": {"type": "Point", "coordinates": [106.2106045419569, 62.981806184072774]}}]}